CTC1_L_00483001-01
1 10000U 25008NJ  26075.70035880  .00000000  00000+0  00000-0 0  9996
2 10000  45.0000   0.0000 0000000   0.0000   0.0000 14.57888518    18
CTC1_L_00483002-01
1 10001U 25917KF  26075.70035880  .00000000  00000+0  00000-0 0  9996
2 10001  45.0000  12.0000 0000000   0.0000  48.0000 14.57888518    14
CTC1_L_00483003-01
1 10002U 22066DJ  26075.70035880  .00000000  00000+0  00000-0 0  9999
2 10002  45.0000  24.0000 0000000   0.0000  96.0000 14.57888518    11
CTC1_L_00483004-01
1 10003U 25656DH  26075.70035880  .00000000  00000+0  00000-0 0  9998
2 10003  45.0000  36.0000 0000000   0.0000 144.0000 14.57888518    19
CTC1_L_00483005-01
1 10004U 26845WO  26075.70035880  .00000000  00000+0  00000-0 0  9990
2 10004  45.0000  48.0000 0000000   0.0000 192.0000 14.57888518    16
CTC1_L_00483006-01
1 10005U 26065MF  26075.70035880  .00000000  00000+0  00000-0 0  9995
2 10005  45.0000  60.0000 0000000   0.0000 240.0000 14.57888518    15
CTC1_L_00483007-01
1 10006U 25066XR  26075.70035880  .00000000  00000+0  00000-0 0  9996
2 10006  45.0000  72.0000 0000000   0.0000 288.0000 14.57888518    11
CTC1_L_00483008-01
1 10007U 22521RC  26075.70035880  .00000000  00000+0  00000-0 0  9990
2 10007  45.0000  84.0000 0000000   0.0000 336.0000 14.57888518    19
CTC1_L_00483009-01
1 10008U 24641WT  26075.70035880  .00000000  00000+0  00000-0 0  9996
2 10008  45.0000  96.0000 0000000   0.0000  24.0000 14.57888518    17
CTC1_L_00483010-01
1 10009U 26749VI  26075.70035880  .00000000  00000+0  00000-0 0  9998
2 10009  45.0000 108.0000 0000000   0.0000  72.0000 14.57888518    15
CTC1_L_00483011-01
1 10010U 26855DT  26075.70035880  .00000000  00000+0  00000-0 0  9998
2 10010  45.0000 120.0000 0000000   0.0000 120.0000 14.57888518    15
CTC1_L_00483012-01
1 10011U 22691TX  26075.70035880  .00000000  00000+0  00000-0 0  9993
2 10011  45.0000 132.0000 0000000   0.0000 168.0000 14.57888518    11
CTC1_L_00483013-01
1 10012U 23416OA  26075.70035880  .00000000  00000+0  00000-0 0  9990
2 10012  45.0000 144.0000 0000000   0.0000 216.0000 14.57888518    19
CTC1_L_00483014-01
1 10013U 26790PV  26075.70035880  .00000000  00000+0  00000-0 0  9999
2 10013  45.0000 156.0000 0000000   0.0000 264.0000 14.57888518    16
CTC1_L_00483015-01
1 10014U 22348LG  26075.70035880  .00000000  00000+0  00000-0 0  9995
2 10014  45.0000 168.0000 0000000   0.0000 312.0000 14.57888518    14
CTC1_L_00483016-01
1 10015U 26483EH  26075.70035880  .00000000  00000+0  00000-0 0  9990
2 10015  45.0000 180.0000 0000000   0.0000   0.0000 14.57888518    13
CTC1_L_00483017-01
1 10016U 23746RA  26075.70035880  .00000000  00000+0  00000-0 0  9990
2 10016  45.0000 192.0000 0000000   0.0000  48.0000 14.57888518    19
CTC1_L_00483018-01
1 10017U 24675NR  26075.70035880  .00000000  00000+0  00000-0 0  9993
2 10017  45.0000 204.0000 0000000   0.0000  96.0000 14.57888518    17
CTC1_L_00483019-01
1 10018U 26611RQ  26075.70035880  .00000000  00000+0  00000-0 0  9996
2 10018  45.0000 216.0000 0000000   0.0000 144.0000 14.57888518    15
CTC1_L_00483020-01
1 10019U 23814PW  26075.70035880  .00000000  00000+0  00000-0 0  9999
2 10019  45.0000 228.0000 0000000   0.0000 192.0000 14.57888518    12
CTC1_L_00483021-01
1 10020U 22418YM  26075.70035880  .00000000  00000+0  00000-0 0  9990
2 10020  45.0000 240.0000 0000000   0.0000 240.0000 14.57888518    12
CTC1_L_00483022-01
1 10021U 22183UY  26075.70035880  .00000000  00000+0  00000-0 0  9990
2 10021  45.0000 252.0000 0000000   0.0000 288.0000 14.57888518    18
CTC1_L_00483023-01
1 10022U 22040QJ  26075.70035880  .00000000  00000+0  00000-0 0  9993
2 10022  45.0000 264.0000 0000000   0.0000 336.0000 14.57888518    16
CTC1_L_00483024-01
1 10023U 25294ND  26075.70035880  .00000000  00000+0  00000-0 0  9998
2 10023  45.0000 276.0000 0000000   0.0000  24.0000 14.57888518    14
CTC1_L_00483025-01
1 10024U 22341EA  26075.70035880  .00000000  00000+0  00000-0 0  9999
2 10024  45.0000 288.0000 0000000   0.0000  72.0000 14.57888518    11
CTC1_L_00483026-01
1 10025U 24176DR  26075.70035880  .00000000  00000+0  00000-0 0  9998
2 10025  45.0000 300.0000 0000000   0.0000 120.0000 14.57888518    11
CTC1_L_00483027-01
1 10026U 24233CL  26075.70035880  .00000000  00000+0  00000-0 0  9993
2 10026  45.0000 312.0000 0000000   0.0000 168.0000 14.57888518    17
CTC1_L_00483028-01
1 10027U 22470D   26075.70035880  .00000000  00000+0  00000-0 0  9995
2 10027  45.0000 324.0000 0000000   0.0000 216.0000 14.57888518    15
CTC1_L_00483029-01
1 10028U 22083OP  26075.70035880  .00000000  00000+0  00000-0 0  9996
2 10028  45.0000 336.0000 0000000   0.0000 264.0000 14.57888518    12
CTC1_L_00483030-01
1 10029U 25769TN  26075.70035880  .00000000  00000+0  00000-0 0  9991
2 10029  45.0000 348.0000 0000000   0.0000 312.0000 14.57888518    10
